[{"OBJECT_NAME":"FENGYUN 1C DEB","OBJECT_ID":"1999-025TU","EPOCH":"2026-03-03T20:10:06.754080","MEAN_MOTION":13.39035306,"ECCENTRICITY":0.0367693,"INCLINATION":98.6986,"RA_OF_ASC_NODE":171.5508,"ARG_OF_PERICENTER":28.6894,"MEAN_ANOMALY":87.4239,"EPHEMERIS_TYPE":0,"CLASSIFICATION_TYPE":"U","NORAD_CAT_ID":30163,"ELEMENT_SET_NO":999,"REV_AT_EPOCH":93030,"BSTAR":0.0013949,"MEAN_MOTION_DOT":1.074e-5,"MEAN_MOTION_DDOT":0},{"OBJECT_NAME":"FENGYUN 1C DEB","OBJECT_ID":"1999-025TY","EPOCH":"2026-03-03T20:35:18.623616","MEAN_MOTION":14.4884589,"ECCENTRICITY":0.0141886,"INCLINATION":98.9594,"RA_OF_ASC_NODE":158.0234,"ARG_OF_PERICENTER":271.5113,"MEAN_ANOMALY":215.5172,"EPHEMERIS_TYPE":0,"CLASSIFICATION_TYPE":"U","NORAD_CAT_ID":30167,"ELEMENT_SET_NO":999,"REV_AT_EPOCH":532,"BSTAR":0.00049234,"MEAN_MOTION_DOT":2.056e-5,"MEAN_MOTION_DDOT":0},{"OBJECT_NAME":"FENGYUN 1C DEB","OBJECT_ID":"1999-025TZ","EPOCH":"2026-03-04T04:06:33.876288","MEAN_MOTION":14.54168975,"ECCENTRICITY":0.0096633,"INCLINATION":97.3785,"RA_OF_ASC_NODE":130.9594,"ARG_OF_PERICENTER":256.6147,"MEAN_ANOMALY":102.4265,"EPHEMERIS_TYPE":0,"CLASSIFICATION_TYPE":"U","NORAD_CAT_ID":30168,"ELEMENT_SET_NO":999,"REV_AT_EPOCH":99494,"BSTAR":0.0021705,"MEAN_MOTION_DOT":9.74e-5,"MEAN_MOTION_DDOT":0},{"OBJECT_NAME":"FENGYUN 1C DEB","OBJECT_ID":"1999-025UA","EPOCH":"2026-03-04T03:39:21.375936","MEAN_MOTION":14.60641883,"ECCENTRICITY":0.0204306,"INCLINATION":98.3244,"RA_OF_ASC_NODE":138.0095,"ARG_OF_PERICENTER":334.4069,"MEAN_ANOMALY":54.0116,"EPHEMERIS_TYPE":0,"CLASSIFICATION_TYPE":"U","NORAD_CAT_ID":30169,"ELEMENT_SET_NO":999,"REV_AT_EPOCH":98911,"BSTAR":0.0024207,"MEAN_MOTION_DOT":0.00015807,"MEAN_MOTION_DDOT":0},{"OBJECT_NAME":"FENGYUN 1C DEB","OBJECT_ID":"1999-025UB","EPOCH":"2026-03-03T12:47:19.385664","MEAN_MOTION":14.00380414,"ECCENTRICITY":0.0080621,"INCLINATION":98.8511,"RA_OF_ASC_NODE":51.9817,"ARG_OF_PERICENTER":51.4341,"MEAN_ANOMALY":72.3674,"EPHEMERIS_TYPE":0,"CLASSIFICATION_TYPE":"U","NORAD_CAT_ID":30170,"ELEMENT_SET_NO":999,"REV_AT_EPOCH":97546,"BSTAR":0.00038211,"MEAN_MOTION_DOT":5.4e-6,"MEAN_MOTION_DDOT":0},{"OBJECT_NAME":"FENGYUN 1C DEB","OBJECT_ID":"1999-025UC","EPOCH":"2026-03-03T12:30:44.272800","MEAN_MOTION":13.96923689,"ECCENTRICITY":0.0185985,"INCLINATION":98.3936,"RA_OF_ASC_NODE":278.2955,"ARG_OF_PERICENTER":41.4702,"MEAN_ANOMALY":320.0407,"EPHEMERIS_TYPE":0,"CLASSIFICATION_TYPE":"U","NORAD_CAT_ID":30171,"ELEMENT_SET_NO":999,"REV_AT_EPOCH":97398,"BSTAR":0.0003582,"MEAN_MOTION_DOT":5.39e-6,"MEAN_MOTION_DDOT":0},{"OBJECT_NAME":"FENGYUN 1C DEB","OBJECT_ID":"1999-025UD","EPOCH":"2026-03-03T13:23:46.051296","MEAN_MOTION":14.13012885,"ECCENTRICITY":0.0069353,"INCLINATION":99.2434,"RA_OF_ASC_NODE":49.1418,"ARG_OF_PERICENTER":337.1435,"MEAN_ANOMALY":144.6711,"EPHEMERIS_TYPE":0,"CLASSIFICATION_TYPE":"U","NORAD_CAT_ID":30172,"ELEMENT_SET_NO":999,"REV_AT_EPOCH":97658,"BSTAR":0.0023879,"MEAN_MOTION_DOT":4.511e-5,"MEAN_MOTION_DDOT":0},{"OBJECT_NAME":"FENGYUN 1C DEB","OBJECT_ID":"1999-025UE","EPOCH":"2026-03-04T04:12:03.968352","MEAN_MOTION":14.11908597,"ECCENTRICITY":0.0080749,"INCLINATION":98.9671,"RA_OF_ASC_NODE":138.9447,"ARG_OF_PERICENTER":61.6698,"MEAN_ANOMALY":328.6159,"EPHEMERIS_TYPE":0,"CLASSIFICATION_TYPE":"U","NORAD_CAT_ID":30173,"ELEMENT_SET_NO":999,"REV_AT_EPOCH":97698,"BSTAR":0.0014288,"MEAN_MOTION_DOT":2.649e-5,"MEAN_MOTION_DDOT":0},{"OBJECT_NAME":"FENGYUN 1C DEB","OBJECT_ID":"1999-025UF","EPOCH":"2026-03-04T00:41:47.741856","MEAN_MOTION":14.89022612,"ECCENTRICITY":0.0016559,"INCLINATION":98.7763,"RA_OF_ASC_NODE":225.0181,"ARG_OF_PERICENTER":166.0761,"MEAN_ANOMALY":321.2993,"EPHEMERIS_TYPE":0,"CLASSIFICATION_TYPE":"U","NORAD_CAT_ID":30174,"ELEMENT_SET_NO":999,"REV_AT_EPOCH":99574,"BSTAR":0.0088424,"MEAN_MOTION_DOT":0.0008436,"MEAN_MOTION_DDOT":0},{"OBJECT_NAME":"FENGYUN 1C DEB","OBJECT_ID":"1999-025UG","EPOCH":"2026-03-04T03:01:21.292032","MEAN_MOTION":13.83948034,"ECCENTRICITY":0.0145388,"INCLINATION":99.3671,"RA_OF_ASC_NODE":123.9949,"ARG_OF_PERICENTER":356.8908,"MEAN_ANOMALY":31.2935,"EPHEMERIS_TYPE":0,"CLASSIFICATION_TYPE":"U","NORAD_CAT_ID":30175,"ELEMENT_SET_NO":999,"REV_AT_EPOCH":96466,"BSTAR":0.00042411,"MEAN_MOTION_DOT":4.66e-6,"MEAN_MOTION_DDOT":0},{"OBJECT_NAME":"FENGYUN 1C DEB","OBJECT_ID":"1999-025UJ","EPOCH":"2026-03-03T19:11:07.486080","MEAN_MOTION":13.63180713,"ECCENTRICITY":0.0449087,"INCLINATION":98.6337,"RA_OF_ASC_NODE":2.5271,"ARG_OF_PERICENTER":285.1721,"MEAN_ANOMALY":97.0903,"EPHEMERIS_TYPE":0,"CLASSIFICATION_TYPE":"U","NORAD_CAT_ID":30177,"ELEMENT_SET_NO":999,"REV_AT_EPOCH":94567,"BSTAR":0.0010718195,"MEAN_MOTION_DOT":1.626e-5,"MEAN_MOTION_DDOT":0},{"OBJECT_NAME":"FENGYUN 1C DEB","OBJECT_ID":"1999-025UK","EPOCH":"2026-03-04T00:12:38.100384","MEAN_MOTION":13.59035132,"ECCENTRICITY":0.0284123,"INCLINATION":102.2587,"RA_OF_ASC_NODE":321.5844,"ARG_OF_PERICENTER":302.4871,"MEAN_ANOMALY":175.977,"EPHEMERIS_TYPE":0,"CLASSIFICATION_TYPE":"U","NORAD_CAT_ID":30178,"ELEMENT_SET_NO":999,"REV_AT_EPOCH":94275,"BSTAR":0.0021915,"MEAN_MOTION_DOT":2.033e-5,"MEAN_MOTION_DDOT":0},{"OBJECT_NAME":"FENGYUN 1C DEB","OBJECT_ID":"1999-025UN","EPOCH":"2026-03-03T18:43:32.499264","MEAN_MOTION":14.29963329,"ECCENTRICITY":0.00424845,"INCLINATION":98.8352,"RA_OF_ASC_NODE":152.1839,"ARG_OF_PERICENTER":125.1545,"MEAN_ANOMALY":355.1027,"EPHEMERIS_TYPE":0,"CLASSIFICATION_TYPE":"U","NORAD_CAT_ID":30181,"ELEMENT_SET_NO":999,"REV_AT_EPOCH":98669,"BSTAR":0.0018218992,"MEAN_MOTION_DOT":4.7e-5,"MEAN_MOTION_DDOT":0},{"OBJECT_NAME":"FENGYUN 1C DEB","OBJECT_ID":"1999-025UP","EPOCH":"2026-03-04T01:40:21.878688","MEAN_MOTION":13.96496157,"ECCENTRICITY":0.0075509,"INCLINATION":99.0508,"RA_OF_ASC_NODE":117.7831,"ARG_OF_PERICENTER":158.4436,"MEAN_ANOMALY":267.8045,"EPHEMERIS_TYPE":0,"CLASSIFICATION_TYPE":"U","NORAD_CAT_ID":30182,"ELEMENT_SET_NO":999,"REV_AT_EPOCH":97443,"BSTAR":0.00014178,"MEAN_MOTION_DOT":1.57e-6,"MEAN_MOTION_DDOT":0},{"OBJECT_NAME":"FENGYUN 1C DEB","OBJECT_ID":"1999-025UQ","EPOCH":"2026-03-04T02:03:45.921024","MEAN_MOTION":14.12842094,"ECCENTRICITY":0.0026243,"INCLINATION":98.7778,"RA_OF_ASC_NODE":108.7607,"ARG_OF_PERICENTER":26.3841,"MEAN_ANOMALY":2.8552,"EPHEMERIS_TYPE":0,"CLASSIFICATION_TYPE":"U","NORAD_CAT_ID":30183,"ELEMENT_SET_NO":999,"REV_AT_EPOCH":98292,"BSTAR":0.00058241,"MEAN_MOTION_DOT":1.043e-5,"MEAN_MOTION_DDOT":0},{"OBJECT_NAME":"FENGYUN 1C DEB","OBJECT_ID":"1999-025UY","EPOCH":"2026-03-04T04:27:05.512608","MEAN_MOTION":14.79662236,"ECCENTRICITY":0.0094109,"INCLINATION":98.7639,"RA_OF_ASC_NODE":146.674,"ARG_OF_PERICENTER":6.5567,"MEAN_ANOMALY":23.1695,"EPHEMERIS_TYPE":0,"CLASSIFICATION_TYPE":"U","NORAD_CAT_ID":30191,"ELEMENT_SET_NO":999,"REV_AT_EPOCH":1479,"BSTAR":0.0011172,"MEAN_MOTION_DOT":8.98e-5,"MEAN_MOTION_DDOT":0},{"OBJECT_NAME":"FENGYUN 1C DEB","OBJECT_ID":"1999-025VA","EPOCH":"2026-03-03T18:03:44.764416","MEAN_MOTION":14.498414,"ECCENTRICITY":0.01041876,"INCLINATION":98.756,"RA_OF_ASC_NODE":339.0589,"ARG_OF_PERICENTER":249.2746,"MEAN_ANOMALY":134.8714,"EPHEMERIS_TYPE":0,"CLASSIFICATION_TYPE":"U","NORAD_CAT_ID":30193,"ELEMENT_SET_NO":999,"REV_AT_EPOCH":341,"BSTAR":0.00100915,"MEAN_MOTION_DOT":4.123e-5,"MEAN_MOTION_DDOT":0},{"OBJECT_NAME":"FENGYUN 1C DEB","OBJECT_ID":"1999-025VD","EPOCH":"2026-03-03T19:40:57.353664","MEAN_MOTION":14.25878234,"ECCENTRICITY":0.0085941,"INCLINATION":98.6326,"RA_OF_ASC_NODE":159.1111,"ARG_OF_PERICENTER":185.7225,"MEAN_ANOMALY":298.2007,"EPHEMERIS_TYPE":0,"CLASSIFICATION_TYPE":"U","NORAD_CAT_ID":30196,"ELEMENT_SET_NO":999,"REV_AT_EPOCH":99520,"BSTAR":9.819e-5,"MEAN_MOTION_DOT":1.99e-6,"MEAN_MOTION_DDOT":0},{"OBJECT_NAME":"FENGYUN 1C DEB","OBJECT_ID":"1999-025VE","EPOCH":"2026-03-03T19:18:12.693312","MEAN_MOTION":14.37659231,"ECCENTRICITY":0.00578415,"INCLINATION":98.9435,"RA_OF_ASC_NODE":356.3468,"ARG_OF_PERICENTER":337.7665,"MEAN_ANOMALY":39.4595,"EPHEMERIS_TYPE":0,"CLASSIFICATION_TYPE":"U","NORAD_CAT_ID":30197,"ELEMENT_SET_NO":999,"REV_AT_EPOCH":99651,"BSTAR":0.0012049071,"MEAN_MOTION_DOT":3.644e-5,"MEAN_MOTION_DDOT":0},{"OBJECT_NAME":"FENGYUN 1C DEB","OBJECT_ID":"1999-025VF","EPOCH":"2026-03-03T20:09:33.566976","MEAN_MOTION":14.51508238,"ECCENTRICITY":0.01036608,"INCLINATION":98.453,"RA_OF_ASC_NODE":199.264,"ARG_OF_PERICENTER":310.6789,"MEAN_ANOMALY":203.6092,"EPHEMERIS_TYPE":0,"CLASSIFICATION_TYPE":"U","NORAD_CAT_ID":30198,"ELEMENT_SET_NO":999,"REV_AT_EPOCH":99683,"BSTAR":0.0015049949,"MEAN_MOTION_DOT":6.405e-5,"MEAN_MOTION_DDOT":0},{"OBJECT_NAME":"FENGYUN 1C DEB","OBJECT_ID":"1999-025VG","EPOCH":"2026-03-04T00:20:31.646688","MEAN_MOTION":14.39047133,"ECCENTRICITY":0.0079028,"INCLINATION":98.3779,"RA_OF_ASC_NODE":89.8743,"ARG_OF_PERICENTER":65.4883,"MEAN_ANOMALY":325.1554,"EPHEMERIS_TYPE":0,"CLASSIFICATION_TYPE":"U","NORAD_CAT_ID":30199,"ELEMENT_SET_NO":999,"REV_AT_EPOCH":99579,"BSTAR":0.0012533,"MEAN_MOTION_DOT":3.974e-5,"MEAN_MOTION_DDOT":0},{"OBJECT_NAME":"FENGYUN 1C DEB","OBJECT_ID":"1999-025VH","EPOCH":"2026-03-04T00:55:43.830336","MEAN_MOTION":14.22350271,"ECCENTRICITY":0.0145926,"INCLINATION":99.113,"RA_OF_ASC_NODE":265.5578,"ARG_OF_PERICENTER":226.7317,"MEAN_ANOMALY":132.1609,"EPHEMERIS_TYPE":0,"CLASSIFICATION_TYPE":"U","NORAD_CAT_ID":30200,"ELEMENT_SET_NO":999,"REV_AT_EPOCH":99138,"BSTAR":0.00024388,"MEAN_MOTION_DOT":5.56e-6,"MEAN_MOTION_DDOT":0},{"OBJECT_NAME":"FENGYUN 1C DEB","OBJECT_ID":"1999-025VJ","EPOCH":"2026-03-03T20:57:43.602048","MEAN_MOTION":14.23150142,"ECCENTRICITY":0.002992,"INCLINATION":99.4089,"RA_OF_ASC_NODE":207.5683,"ARG_OF_PERICENTER":83.77,"MEAN_ANOMALY":276.6883,"EPHEMERIS_TYPE":0,"CLASSIFICATION_TYPE":"U","NORAD_CAT_ID":30201,"ELEMENT_SET_NO":999,"REV_AT_EPOCH":98981,"BSTAR":0.00057635,"MEAN_MOTION_DOT":1.258e-5,"MEAN_MOTION_DDOT":0}]
